     3.00           N: GNSS NAV DATA    E: Galileo          RINEX VERSION / TYPE
PREC2NAV                                20121215 063312 UTC PGM / RUN BY / DATE 
SOURCE: data/tum%W%D.sp3                                    COMMENT             
                                                            END OF HEADER       
E11 2012 11 11  0  0  0  .310692365800E-03  .385565371795E-09  .000000000000E+00
      .100000000000E+01 -.498057878700E+02  .376262137873E-08  .489381343812E+00
     -.243719759225E-05  .146162963810E-03  .423930303650E-05  .544059877831E+04
      .000000000000E+00  .139383089476E-06  .119482507871E+01 -.783505252167E-07
      .956013187865E+00  .245308379514E+03  .140308630177E+01 -.606578464731E-08
     -.332560147134E-09  .000000000000E+00  .171400000000E+04  .000000000000E+00
      .240000000000E+01  .000000000000E+00  .000000000000E+00  .000000000000E+00
      .360000000000E+04  .000000000000E+00
E12 2012 11 11  0  0  0  .480838224680E-03  .849370205128E-10  .000000000000E+00
      .100000000000E+01 -.457357768299E+02  .367443872494E-08 -.327130351094E+00
     -.216453778608E-05  .468071821661E-04  .418814156562E-05  .544059352119E+04
      .000000000000E+00 -.231005152532E-07  .119479780801E+01 -.981321313703E-07
      .956025479136E+00  .244573518692E+03  .292346322712E+01 -.592350877554E-08
     -.157419601135E-09  .000000000000E+00  .171400000000E+04  .000000000000E+00
      .240000000000E+01  .000000000000E+00  .000000000000E+00  .000000000000E+00
      .360000000000E+04  .000000000000E+00
E11 2012 11 11  2  0  0  .313468456640E-03  .385593684615E-09  .000000000000E+00
      .200000000000E+01 -.427795467961E+02  .372541955683E-08  .138711914875E+01
     -.200344572020E-05  .145471392155E-03  .414823359381E-05  .544059668504E+04
      .720000000000E+04 -.180316485202E-09  .119478097215E+01  .692439237457E-08
      .956011786575E+00  .247258005736E+03  .139798554439E+01 -.600951542613E-08
     -.218320685803E-09  .000000000000E+00  .171400000000E+04  .000000000000E+00
      .240000000000E+01  .000000000000E+00  .000000000000E+00  .000000000000E+00
      .108000000000E+05  .000000000000E+00
E12 2012 11 11  2  0  0  .481450375240E-03  .850664743590E-10  .000000000000E+00
      .200000000000E+01 -.443773531876E+02  .364978897918E-08  .557510683525E+00
     -.204206979286E-05  .480987374034E-04  .388321482416E-05  .544059626692E+04
      .720000000000E+04 -.197373505279E-07  .119475491737E+01  .250755731182E-07
      .956023637358E+00  .254425091312E+03 -.335172555133E+01 -.601005385913E-08
     -.199697337187E-09  .000000000000E+00  .171400000000E+04  .000000000000E+00
      .240000000000E+01  .000000000000E+00  .000000000000E+00  .000000000000E+00
      .108000000000E+05  .000000000000E+00
E11 2012 11 11  4  0  0  .316244774200E-03  .385592117949E-09  .000000000000E+00
      .300000000000E+01 -.395250347671E+02  .368234558438E-08  .226921645094E+01
     -.183486762657E-05  .144976934833E-03  .372679593745E-05  .544060001882E+04
      .144000000000E+05 -.182901777571E-07  .119473758384E+01  .760105978948E-08
      .956010049912E+00  .258113002153E+03 -.487466104093E+01 -.603718822564E-08
     -.218250702804E-09  .000000000000E+00  .171400000000E+04  .000000000000E+00
      .240000000000E+01  .000000000000E+00  .000000000000E+00  .000000000000E+00
      .180000000000E+05  .000000000000E+00
E12 2012 11 11  4  0  0  .482062963320E-03  .851076538462E-10  .000000000000E+00
      .300000000000E+01 -.403290736544E+02  .366702778927E-08  .144294652813E+01
     -.178426416947E-05  .486267265456E-04  .374413981031E-05  .544059747382E+04
      .144000000000E+05 -.185153612551E-07  .119471141856E+01 -.173263238576E-09
      .956022148060E+00  .258059289124E+03 -.334452535192E+01 -.603236862940E-08
     -.188410467057E-09  .000000000000E+00  .171400000000E+04  .000000000000E+00
      .240000000000E+01  .000000000000E+00  .000000000000E+00  .000000000000E+00
      .180000000000E+05  .000000000000E+00
E11 2012 11 11  6  0  0  .319021155680E-03  .385625433333E-09  .000000000000E+00
      .400000000000E+01 -.390986698618E+02  .371967579111E-08 -.312244964628E+01
     -.171920078101E-05  .145188795397E-03  .361141141962E-05  .544059976344E+04
      .216000000000E+05 -.399201029706E-08  .119469397564E+01 -.685711169069E-09
      .956008476726E+00  .261598384819E+03  .140963994406E+01 -.604844751595E-08
     -.207273315862E-09  .000000000000E+00  .171400000000E+04  .000000000000E+00
      .240000000000E+01  .000000000000E+00  .000000000000E+00  .000000000000E+00
      .252000000000E+05  .000000000000E+00
E12 2012 11 11  6  0  0  .482675823760E-03  .851201307692E-10  .000000000000E+00
      .400000000000E+01 -.373207999104E+02  .375179145636E-08  .236797594785E+01
     -.168450912932E-05  .492014033780E-04  .334916527464E-05  .544059396978E+04
      .216000000000E+05  .127729663343E-07  .119466829072E+01 -.383156216950E-07
      .956020616151E+00  .269428211556E+03 -.337691774985E+01 -.604460025121E-08
     -.233949930158E-09  .000000000000E+00  .171400000000E+04  .000000000000E+00
      .240000000000E+01  .000000000000E+00  .000000000000E+00  .000000000000E+00
      .252000000000E+05  .000000000000E+00
E11 2012 11 11  8  0  0  .321797865240E-03  .385670923077E-09  .000000000000E+00
      .500000000000E+01 -.325374277803E+02  .380138573149E-08 -.223491795183E+01
     -.150244324122E-05  .146729611422E-03  .325240328792E-05  .544059620301E+04
      .288000000000E+05  .130746269381E-07  .119465054975E+01 -.157285879547E-07
      .956006878797E+00  .271547020365E+03  .141474469455E+01 -.605580863772E-08
     -.227454055229E-09  .000000000000E+00  .171400000000E+04  .000000000000E+00
      .240000000000E+01  .000000000000E+00  .000000000000E+00  .000000000000E+00
      .324000000000E+05  .000000000000E+00
E12 2012 11 11  8  0  0  .483288554360E-03  .850829717949E-10  .000000000000E+00
      .500000000000E+01 -.312947384743E+02  .386217135378E-08 -.301566730022E+01
     -.161237810522E-05  .500464927869E-04  .332588339725E-05  .544059207274E+04
      .288000000000E+05  .280347449506E-07  .119462482119E+01  .487001990652E-08
      .956018602655E+00  .267433736376E+03 -.338382057685E+01 -.608804281287E-08
     -.259506357913E-09  .000000000000E+00  .171400000000E+04  .000000000000E+00
      .240000000000E+01  .000000000000E+00  .000000000000E+00  .000000000000E+00
      .324000000000E+05  .000000000000E+00
E11 2012 11 11 10  0  0  .324574580000E-03  .385643974359E-09  .000000000000E+00
      .600000000000E+01 -.280631977047E+02  .390035821315E-08 -.134838825133E+01
     -.143958163136E-05  .146944771069E-03  .328198421468E-05  .544059427986E+04
      .360000000000E+05  .132296795372E-07  .119460693606E+01  .407792244168E-08
      .956005045992E+00  .267002492139E+03  .142085346358E+01 -.608168726113E-08
     -.238397397011E-09  .000000000000E+00  .171400000000E+04  .000000000000E+00
      .240000000000E+01  .000000000000E+00  .000000000000E+00  .000000000000E+00
      .396000000000E+05  .000000000000E+00
E12 2012 11 11 10  0  0  .483901180520E-03  .850927076923E-10  .000000000000E+00
      .600000000000E+01 -.336355728082E+02  .396058334288E-08 -.212935178874E+01
     -.155386148752E-05  .506496395957E-04  .329810969442E-05  .544059067226E+04
      .360000000000E+05  .307342641271E-07  .119458091019E+01 -.169725955080E-09
      .956016671768E+00  .263078280585E+03  .290569017856E+01 -.610008779556E-08
     -.254756314345E-09  .000000000000E+00  .171400000000E+04  .000000000000E+00
      .240000000000E+01  .000000000000E+00  .000000000000E+00  .000000000000E+00
      .396000000000E+05  .000000000000E+00
E11 2012 11 11 12  0  0  .327351301960E-03  .385671643590E-09  .000000000000E+00
      .700000000000E+01 -.302720672892E+02  .398864858536E-08 -.458783304918E+00
     -.133436023469E-05  .146732180055E-03  .328541332603E-05  .544059329117E+04
      .432000000000E+05  .251391900603E-07  .119456300178E+01 -.110017383029E-07
      .956003263205E+00  .263868322336E+03  .142388863179E+01 -.609971224134E-08
     -.226437216773E-09  .000000000000E+00  .171400000000E+04  .000000000000E+00
      .240000000000E+01  .000000000000E+00  .000000000000E+00  .000000000000E+00
      .468000000000E+05  .000000000000E+00
E12 2012 11 11 12  0  0  .484513754040E-03  .850640743590E-10  .000000000000E+00
      .700000000000E+01 -.307513055599E+02  .398685958061E-08 -.122291237883E+01
     -.131300810876E-05  .505980928985E-04  .358945808448E-05  .544059212812E+04
      .432000000000E+05  .501495684813E-07  .119453675123E+01  .485476510081E-07
      .956014886264E+00  .259121781353E+03  .289189223018E+01 -.610477661904E-08
     -.218439088809E-09  .000000000000E+00  .171400000000E+04  .000000000000E+00
      .240000000000E+01  .000000000000E+00  .000000000000E+00  .000000000000E+00
      .468000000000E+05  .000000000000E+00
E11 2012 11 11 14  0  0  .330128086600E-03  .385641335897E-09  .000000000000E+00
      .800000000000E+01 -.283593784880E+02  .401512500603E-08  .434171408607E+00
     -.119367769689E-05  .147366985587E-03  .361185075576E-05  .544059461359E+04
      .504000000000E+05  .342800714608E-07  .119451864462E+01  .640342648699E-07
      .956001786138E+00  .259841954412E+03  .142357435682E+01 -.610328067025E-08
     -.164188607877E-09  .000000000000E+00  .171400000000E+04  .000000000000E+00
      .240000000000E+01  .000000000000E+00  .000000000000E+00  .000000000000E+00
      .540000000000E+05  .000000000000E+00
